{"type": "FeatureCollection", "features": [ {"type": "Feature", "properties": {"norad_id": 33867, "name": "IRIDIUM 33 DEB", "group": "iridium-33-debris", "lat": 69.16568946158696, "lon": 5.049205562452265, "alt_km": 395.08238457126845, "timestamp": "2025-12-02T08:59:33.099082+00:00", "meta": {"OBJECT_NAME": "IRIDIUM 33 DEB", "OBJECT_ID": "1997-051AL", "EPOCH": "2025-12-02T00:57:38.470176", "MEAN_MOTION": 15.52551436, "ECCENTRICITY": 0.0011753, "INCLINATION": 86.3629, "RA_OF_ASC_NODE": 355.5967, "ARG_OF_PERICENTER": 101.8942, "MEAN_ANOMALY": 258.3637, "EPHEMERIS_TYPE": 0, "CLASSIFICATION_TYPE": "U", "NORAD_CAT_ID": 33867, "ELEMENT_SET_NO": 999, "REV_AT_EPOCH": 89344, "BSTAR": 0.0064553, "MEAN_MOTION_DOT": 0.00417107, "MEAN_MOTION_DDOT": 0}, "tle": {"line1": "1 33867U 97051AL  25336.04002859  .00417107  00000+0  64553-2 0  9990", "line2": "2 33867  86.3629 355.5967 0011753 101.8942 258.3637 15.52551436893444"}}, "geometry": {"type": "Point", "coordinates": [5.049205562452265, 69.16568946158696]}}, {"type": "Feature", "properties": {"norad_id": 33870, "name": "IRIDIUM 33 DEB", "group": "iridium-33-debris", "lat": 51.364986109059494, "lon": 67.25110214725485, "alt_km": 748.6044584897008, "timestamp": "2025-12-02T08:59:33.099093+00:00", "meta": {"OBJECT_NAME": "IRIDIUM 33 DEB", "OBJECT_ID": "1997-051AP", "EPOCH": "2025-12-01T23:35:59.044128", "MEAN_MOTION": 14.45749725, "ECCENTRICITY": 0.0020347, "INCLINATION": 86.3755, "RA_OF_ASC_NODE": 62.8703, "ARG_OF_PERICENTER": 214.0987, "MEAN_ANOMALY": 321.9089, "EPHEMERIS_TYPE": 0, "CLASSIFICATION_TYPE": "U", "NORAD_CAT_ID": 33870, "ELEMENT_SET_NO": 999, "REV_AT_EPOCH": 87981, "BSTAR": 0.001022, "MEAN_MOTION_DOT": 3.648e-05, "MEAN_MOTION_DDOT": 0}, "tle": {"line1": "1 33870U 97051AP  25335.98332227  .00003648  00000+0  10220-2 0  9994", "line2": "2 33870  86.3755  62.8703 0020347 214.0987 321.9089 14.45749725879813"}}, "geometry": {"type": "Point", "coordinates": [67.25110214725485, 51.364986109059494]}}, {"type": "Feature", "properties": {"norad_id": 33881, "name": "IRIDIUM 33 DEB", "group": "iridium-33-debris", "lat": -64.54726480917414, "lon": -61.12687053052955, "alt_km": 677.7497471054803, "timestamp": "2025-12-02T08:59:33.099104+00:00", "meta": {"OBJECT_NAME": "IRIDIUM 33 DEB", "OBJECT_ID": "1997-051BA", "EPOCH": "2025-12-01T19:20:33.045792", "MEAN_MOTION": 14.56252651, "ECCENTRICITY": 0.0061043, "INCLINATION": 86.3869, "RA_OF_ASC_NODE": 111.4914, "ARG_OF_PERICENTER": 210.0929, "MEAN_ANOMALY": 294.4565, "EPHEMERIS_TYPE": 0, "CLASSIFICATION_TYPE": "U", "NORAD_CAT_ID": 33881, "ELEMENT_SET_NO": 999, "REV_AT_EPOCH": 87341, "BSTAR": 0.0018925, "MEAN_MOTION_DOT": 8.609e-05, "MEAN_MOTION_DDOT": 0}, "tle": {"line1": "1 33881U 97051BA  25335.80593803  .00008609  00000+0  18925-2 0  9998", "line2": "2 33881  86.3869 111.4914 0061043 210.0929 294.4565 14.56252651873418"}}, "geometry": {"type": "Point", "coordinates": [-61.12687053052955, -64.54726480917414]}}, {"type": "Feature", "properties": {"norad_id": 33884, "name": "IRIDIUM 33 DEB", "group": "iridium-33-debris", "lat": 45.583053284306146, "lon": -169.21791900581735, "alt_km": 639.7405842264943, "timestamp": "2025-12-02T08:59:33.099118+00:00", "meta": {"OBJECT_NAME": "IRIDIUM 33 DEB", "OBJECT_ID": "1997-051BD", "EPOCH": "2025-12-02T03:46:50.889216", "MEAN_MOTION": 14.77106911, "ECCENTRICITY": 0.0010806, "INCLINATION": 86.3703, "RA_OF_ASC_NODE": 14.5944, "ARG_OF_PERICENTER": 2.5334, "MEAN_ANOMALY": 57.6114, "EPHEMERIS_TYPE": 0, "CLASSIFICATION_TYPE": "U", "NORAD_CAT_ID": 33884, "ELEMENT_SET_NO": 999, "REV_AT_EPOCH": 88691, "BSTAR": 0.0014763, "MEAN_MOTION_DOT": 0.00010468, "MEAN_MOTION_DDOT": 0}, "tle": {"line1": "1 33884U 97051BD  25336.15753344  .00010468  00000+0  14763-2 0  9990", "line2": "2 33884  86.3703  14.5944 0010806   2.5334  57.6114 14.77106911886917"}}, "geometry": {"type": "Point", "coordinates": [-169.21791900581735, 45.583053284306146]}}, {"type": "Feature", "properties": {"norad_id": 33886, "name": "IRIDIUM 33 DEB", "group": "iridium-33-debris", "lat": 23.87605601239508, "lon": -110.01332747389762, "alt_km": 776.1729403916434, "timestamp": "2025-12-02T08:59:33.099129+00:00", "meta": {"OBJECT_NAME": "IRIDIUM 33 DEB", "OBJECT_ID": "1997-051BF", "EPOCH": "2025-12-02T00:42:45.496800", "MEAN_MOTION": 14.3602978, "ECCENTRICITY": 0.0012036, "INCLINATION": 86.3833, "RA_OF_ASC_NODE": 71.7361, "ARG_OF_PERICENTER": 282.7225, "MEAN_ANOMALY": 250.9616, "EPHEMERIS_TYPE": 0, "CLASSIFICATION_TYPE": "U", "NORAD_CAT_ID": 33886, "ELEMENT_SET_NO": 999, "REV_AT_EPOCH": 87898, "BSTAR": 0.00024926, "MEAN_MOTION_DOT": 7.44e-06, "MEAN_MOTION_DDOT": 0}, "tle": {"line1": "1 33886U 97051BF  25336.02969325  .00000744  00000+0  24926-3 0  9995", "line2": "2 33886  86.3833  71.7361 0012036 282.7225 250.9616 14.36029780878985"}}, "geometry": {"type": "Point", "coordinates": [-110.01332747389762, 23.87605601239508]}}, {"type": "Feature", "properties": {"norad_id": 33887, "name": "IRIDIUM 33 DEB", "group": "iridium-33-debris", "lat": 48.47157762813513, "lon": 12.0429023862396, "alt_km": 765.3955339049962, "timestamp": "2025-12-02T08:59:33.099140+00:00", "meta": {"OBJECT_NAME": "IRIDIUM 33 DEB", "OBJECT_ID": "1997-051BG", "EPOCH": "2025-12-02T02:12:48.398112", "MEAN_MOTION": 14.37205512, "ECCENTRICITY": 0.0004039, "INCLINATION": 86.3053, "RA_OF_ASC_NODE": 7.9804, "ARG_OF_PERICENTER": 277.872, "MEAN_ANOMALY": 110.2578, "EPHEMERIS_TYPE": 0, "CLASSIFICATION_TYPE": "U", "NORAD_CAT_ID": 33887, "ELEMENT_SET_NO": 999, "REV_AT_EPOCH": 88012, "BSTAR": 0.00017226, "MEAN_MOTION_DOT": 5.32e-06, "MEAN_MOTION_DDOT": 0}, "tle": {"line1": "1 33887U 97051BG  25336.09222683  .00000532  00000+0  17226-3 0  9992", "line2": "2 33887  86.3053   7.9804 0004039 277.8720 110.2578 14.37205512880126"}}, "geometry": {"type": "Point", "coordinates": [12.0429023862396, 48.47157762813513]}}, {"type": "Feature", "properties": {"norad_id": 33953, "name": "IRIDIUM 33 DEB", "group": "iridium-33-debris", "lat": -47.42048462083368, "lon": 54.332088787161084, "alt_km": 728.8493822473638, "timestamp": "2025-12-02T08:59:33.099150+00:00", "meta": {"OBJECT_NAME": "IRIDIUM 33 DEB", "OBJECT_ID": "1997-051BN", "EPOCH": "2025-12-01T11:49:34.999680", "MEAN_MOTION": 14.55133088, "ECCENTRICITY": 0.00184148, "INCLINATION": 86.3852, "RA_OF_ASC_NODE": 58.6594, "ARG_OF_PERICENTER": 137.1795, "MEAN_ANOMALY": 238.3819, "EPHEMERIS_TYPE": 0, "CLASSIFICATION_TYPE": "U", "NORAD_CAT_ID": 33953, "ELEMENT_SET_NO": 999, "REV_AT_EPOCH": 88140, "BSTAR": 0.0015798545, "MEAN_MOTION_DOT": 6.858e-05, "MEAN_MOTION_DDOT": 0}, "tle": {"line1": "1 33953U 97051BN  25335.49276620  .00006858  00000+0  15799-2 0  9998", "line2": "2 33953  86.3852  58.6594 0018414 137.1795 238.3819 14.55133088881408"}}, "geometry": {"type": "Point", "coordinates": [54.332088787161084, -47.42048462083368]}}, {"type": "Feature", "properties": {"norad_id": 33960, "name": "IRIDIUM 33 DEB", "group": "iridium-33-debris", "lat": 82.08238117580406, "lon": 86.281712341668, "alt_km": 603.9117728608117, "timestamp": "2025-12-02T08:59:33.099162+00:00", "meta": {"OBJECT_NAME": "IRIDIUM 33 DEB", "OBJECT_ID": "1997-051BV", "EPOCH": "2025-12-01T21:29:55.792032", "MEAN_MOTION": 14.84270371, "ECCENTRICITY": 0.0006917, "INCLINATION": 86.2527, "RA_OF_ASC_NODE": 294.6233, "ARG_OF_PERICENTER": 77.1368, "MEAN_ANOMALY": 342.5021, "EPHEMERIS_TYPE": 0, "CLASSIFICATION_TYPE": "U", "NORAD_CAT_ID": 33960, "ELEMENT_SET_NO": 999, "REV_AT_EPOCH": 88706, "BSTAR": 0.0035106, "MEAN_MOTION_DOT": 0.00029537, "MEAN_MOTION_DDOT": 0}, "tle": {"line1": "1 33960U 97051BV  25335.89578463  .00029537  00000+0  35106-2 0  9993", "line2": "2 33960  86.2527 294.6233 0006917  77.1368 342.5021 14.84270371887060"}}, "geometry": {"type": "Point", "coordinates": [86.281712341668, 82.08238117580406]}}, {"type": "Feature", "properties": {"norad_id": 33966, "name": "IRIDIUM 33 DEB", "group": "iridium-33-debris", "lat": -69.4421378184503, "lon": 40.79283301811989, "alt_km": 732.6382054869064, "timestamp": "2025-12-02T08:59:33.099172+00:00", "meta": {"OBJECT_NAME": "IRIDIUM 33 DEB", "OBJECT_ID": "1997-051CB", "EPOCH": "2025-12-02T04:36:25.343136", "MEAN_MOTION": 14.49519248, "ECCENTRICITY": 0.0006277, "INCLINATION": 86.3934, "RA_OF_ASC_NODE": 50.5529, "ARG_OF_PERICENTER": 226.7343, "MEAN_ANOMALY": 190.5824, "EPHEMERIS_TYPE": 0, "CLASSIFICATION_TYPE": "U", "NORAD_CAT_ID": 33966, "ELEMENT_SET_NO": 999, "REV_AT_EPOCH": 88289, "BSTAR": 0.000703, "MEAN_MOTION_DOT": 2.714e-05, "MEAN_MOTION_DDOT": 0}, "tle": {"line1": "1 33966U 97051CB  25336.19195999  .00002714  00000+0  70300-3 0  9996", "line2": "2 33966  86.3934  50.5529 0006277 226.7343 190.5824 14.49519248882898"}}, "geometry": {"type": "Point", "coordinates": [40.79283301811989, -69.4421378184503]}}, {"type": "Feature", "properties": {"norad_id": 34071, "name": "IRIDIUM 33 DEB", "group": "iridium-33-debris", "lat": 1.2927107458799574, "lon": 22.41585146902969, "alt_km": 735.2090707883171, "timestamp": "2025-12-02T08:59:33.099183+00:00", "meta": {"OBJECT_NAME": "IRIDIUM 33 DEB", "OBJECT_ID": "1997-051CE", "EPOCH": "2025-12-02T04:00:56.713248", "MEAN_MOTION": 14.49386618, "ECCENTRICITY": 0.0009409, "INCLINATION": 86.3469, "RA_OF_ASC_NODE": 22.4233, "ARG_OF_PERICENTER": 136.3059, "MEAN_ANOMALY": 223.8891, "EPHEMERIS_TYPE": 0, "CLASSIFICATION_TYPE": "U", "NORAD_CAT_ID": 34071, "ELEMENT_SET_NO": 999, "REV_AT_EPOCH": 88181, "BSTAR": 0.00071637, "MEAN_MOTION_DOT": 2.758e-05, "MEAN_MOTION_DDOT": 0}, "tle": {"line1": "1 34071U 97051CE  25336.16732307  .00002758  00000+0  71637-3 0  9993", "line2": "2 34071  86.3469  22.4233 0009409 136.3059 223.8891 14.49386618881817"}}, "geometry": {"type": "Point", "coordinates": [22.41585146902969, 1.2927107458799574]}}]}